{
    "links": {
        "self": "http://www.neowsapp.com/rest/v1/neo/3771585?api_key=iIulBulltgU6a56xZRHN4H3l9WmuAYTsLGpBGhQ2"
    },
    "id": "3771585",
    "neo_reference_id": "3771585",
    "name": "(2017 FQ)",
    "designation": "2017 FQ",
    "nasa_jpl_url": "http://ssd.jpl.nasa.gov/sbdb.cgi?sstr=3771585",
    "absolute_magnitude_h": 21.3,
    "estimated_diameter": {
        "kilometers": {
            "estimated_diameter_min": 0.1460679643,
            "estimated_diameter_max": 0.3266178974
        },
        "meters": {
            "estimated_diameter_min": 146.0679642714,
            "estimated_diameter_max": 326.6178974458
        },
        "miles": {
            "estimated_diameter_min": 0.090762397,
            "estimated_diameter_max": 0.2029508896
        },
        "feet": {
            "estimated_diameter_min": 479.2256199,
            "estimated_diameter_max": 1071.581062656
        }
    },
    "is_potentially_hazardous_asteroid": false,
    "close_approach_data": [
        {
            "close_approach_date": "2017-03-18",
            "close_approach_date_full": "2017-Mar-18 06:28",
            "epoch_date_close_approach": 1489818480000,
            "relative_velocity": {
                "kilometers_per_second": "25.2056759666",
                "kilometers_per_hour": "90740.4334798464",
                "miles_per_hour": "56382.5765697412"
            },
            "miss_distance": {
                "astronomical": "0.2083422289",
                "lunar": "81.0451270421",
                "kilometers": "31167553.674492443",
                "miles": "19366619.8112359934"
            },
            "orbiting_body": "Earth"
        },
        {
            "close_approach_date": "2025-03-15",
            "close_approach_date_full": "2025-Mar-15 11:35",
            "epoch_date_close_approach": 1742038500000,
            "relative_velocity": {
                "kilometers_per_second": "26.0045568246",
                "kilometers_per_hour": "93616.4045685208",
                "miles_per_hour": "58169.5931609234"
            },
            "miss_distance": {
                "astronomical": "0.2208919825",
                "lunar": "85.9269811925",
                "kilometers": "33044970.082077275",
                "miles": "20533192.272225395"
            },
            "orbiting_body": "Earth"
        }
    ],
    "orbital_data": {
        "orbit_id": "9",
        "orbit_determination_date": "2017-04-06 08:19:28",
        "first_observation_date": "2017-03-17",
        "last_observation_date": "2017-03-31",
        "data_arc_in_days": 14,
        "observations_used": 106,
        "orbit_uncertainty": "8",
        "minimum_orbit_intersection": ".197325",
        "jupiter_tisserand_invariant": "4.452",
        "epoch_osculation": "2457833.5",
        "eccentricity": ".1785070399112858",
        "semi_major_axis": "1.364554279118365",
        "inclination": "50.64644364746492",
        "ascending_node_longitude": "174.789543107928",
        "orbital_period": "582.2166893115817",
        "perihelion_distance": "1.120971733954667",
        "perihelion_argument": "53.97001674260095",
        "aphelion_distance": "1.608136824282062",
        "perihelion_time": "2457893.575518951066",
        "mean_anomaly": "322.8537154303221",
        "mean_motion": ".6183264866997668",
        "equinox": "J2000",
        "orbit_class": {
            "orbit_class_type": "AMO",
            "orbit_class_description": "Near-Earth asteroid orbits similar to that of 1221 Amor",
            "orbit_class_range": "1.017 AU < q (perihelion) < 1.3 AU"
        }
    },
    "is_sentry_object": false
}